GLOBALSTAR M068         
1 32266U 07048D   25170.59394539 -.00000073  00000+0  17289-3 0  9990
2 32266  51.9896 294.9210 0001696 131.2706 241.4754 12.62825190817861
GLOBALSTAR M079         
1 37188U 10054A   25170.33752694 -.00000086  00000+0  99793-4 0  9996
2 37188  52.0022 133.2381 0000411 347.7402 177.0157 12.62265104676729
GLOBALSTAR M074         
1 37189U 10054B   25170.60340588 -.00000096  00000+0  45885-4 0  9996
2 37189  51.9999 131.7525 0000504  26.5371 145.6890 12.62256966677366
GLOBALSTAR M076         
1 37190U 10054C   25170.39217888 -.00000097  00000+0  36899-4 0  9996
2 37190  52.0012 132.5656 0000550   6.9821 165.6521 12.62263309677051
GLOBALSTAR M077         
1 37191U 10054D   25170.53698610 -.00000100  00000+0  18579-4 0  9999
2 37191  52.0075  88.9824 0000619  47.0785 123.9028 12.62268429677443
GLOBALSTAR M075         
1 37192U 10054E   25170.39977000 -.00000082  00000+0  12061-3 0  9995
2 37192  51.9917 174.7999 0000096  65.2660  81.7153 12.62265846676121
GLOBALSTAR M073         
1 37193U 10054F   25170.24554094 -.00000101  00000+0  13776-4 0  9991
2 37193  52.0064  89.0890 0000659  37.3999 128.2255 12.62272031678097
GLOBALSTAR M083         
1 37739U 11033A   25170.54503116 -.00000098  00000+0  29682-4 0  9995
2 37739  51.9873  36.9071 0000621  78.3469 308.1565 12.62263959647512
GLOBALSTAR M088         
1 37740U 11033B   25170.36017642 -.00000097  00000+0  40373-4 0  9990
2 37740  52.0062 303.0224 0000795 124.0933 262.6279 12.62265579642679
GLOBALSTAR M091         
1 37741U 11033C   25170.21223720 -.00000093  00000+0  57874-4 0  9991
2 37741  51.9999 266.9692 0000620 158.2915 216.1060 12.62268882643447
GLOBALSTAR M085         
1 37742U 11033D   25170.43627762 -.00000098  00000+0  31877-4 0  9990
2 37742  51.9844 217.3225 0000378 190.8515 182.6109 12.62269440643988
GLOBALSTAR M081         
1 37743U 11033E   25170.06649215 -.00000093  00000+0  57643-4 0  9991
2 37743  51.9939 221.2389 0000195 203.4099 167.5588 12.62266628644084
GLOBALSTAR M089         
1 37744U 11033F   25170.26472583 -.00000083  00000+0  11761-3 0  9995
2 37744  51.9901 174.8599 0000333  41.7310 331.8300 12.62264924644954
GLOBALSTAR M084         
1 38040U 11080A   25170.39205765 -.00000107  00000+0 -19111-4 0  9993
2 38040  52.0024  41.7617 0001061  63.4763 108.0732 12.62266787622944
GLOBALSTAR M080         
1 38041U 11080B   25170.36358036 -.00000099  00000+0  27047-4 0  9997
2 38041  52.0076  43.4410 0000833 104.6050  67.1071 12.62263488623065
GLOBALSTAR M082         
1 38042U 11080C   25170.29961403 -.00000094  00000+0  52698-4 0  9993
2 38042  52.0093 359.0967 0000862 118.5470  52.9695 12.62266797623767
GLOBALSTAR M092         
1 38043U 11080D   25170.51065719 -.00000100  00000+0  22397-4 0  9995
2 38043  52.0088  88.8299 0000621  53.6345 117.3235 12.62264363622245
GLOBALSTAR M090         
1 38044U 11080E   25170.44903586 -.00000090  00000+0  78165-4 0  9993
2 38044  52.0140 352.4784 0000733 104.4463 267.4673 12.62273728623906
GLOBALSTAR M086         
1 38045U 11080F   25170.47655366 -.00000089  00000+0  83090-4 0  9998
2 38045  51.9917 352.9125 0000861  15.4101   2.0255 12.62271631623857
GLOBALSTAR M097         
1 39072U 13005A   25170.57846138 -.00000111  00000+0 -42123-4 0  9997
2 39072  52.0049 267.1521 0000385 144.3795 215.7097 12.62272432571113
GLOBALSTAR M093         
1 39073U 13005B   25170.23537078 -.00000098  00000+0  34026-4 0  9997
2 39073  51.9810 261.4963 0000424 155.3851 204.7035 12.62265586571149
GLOBALSTAR M094         
1 39074U 13005C   25170.39380292 -.00000093  00000+0  59360-4 0  9992
2 39074  51.9926 175.3971 0000252 281.2396  78.8442 12.62262879572653
GLOBALSTAR M096         
1 39075U 13005D   25170.40697060 -.00000094  00000+0  55144-4 0  9996
2 39075  52.0053 223.8747 0000367 200.4130 159.6722 12.62265454571574
GLOBALSTAR M078         
1 39076U 13005E   25170.38052168 -.00000209  00000+0 -58711-3 0  9999
2 39076  51.9892 308.4613 0001265 152.2707 207.8227 12.62257897570193
GLOBALSTAR M095         
1 39077U 13005F   25170.09010251 -.00000100  00000+0  23016-4 0  9995
2 39077  51.9816 306.5407 0000802 152.7056 207.3852 12.62263622570011
GLOBALSTAR M087         
1 52888U 22064A   25170.43754001 -.00000105  00000+0 -67647-5 0  9996
2 52888  52.0000  86.9475 0000474  55.4196 304.6716 12.62263555145323
